IRIDIUM 126             
1 42809U 17039G   24086.97331769 -.00000025  00000+0 -15984-4 0  9997
2 42809  86.3993 333.0881 0001972  94.1813 265.9608 14.34216875353530
IRIDIUM 128             
1 42811U 17039J   24086.82449763  .00002559  00000+0  90665-3 0  9998
2 42811  86.4033   4.6497 0002427  86.6574 273.4899 14.34212025353549
IRIDIUM 121             
1 42812U 17039K   24086.92257881 -.00000007  00000+0 -97177-5 0  9993
2 42812  86.3994 333.1318 0002093  86.3289 273.8146 14.34217607353524
IRIDIUM 133             
1 42955U 17061A   24086.85623031  .00000108  00000+0  31396-4 0  9992
2 42955  86.4031   4.7337 0002159  86.0511 274.0931 14.34219097338348
IRIDIUM 100             
1 42956U 17061B   24086.71034928  .00000784  00000+0  27272-3 0  9996
2 42956  86.4029   4.7321 0002188  87.1045 273.0401 14.34220971338327
IRIDIUM 122             
1 42957U 17061C   24086.81817769  .00000263  00000+0  86702-4 0  9996
2 42957  86.4032   4.6852 0002293  88.5421 271.6037 14.34216787338341
IRIDIUM 129             
1 42958U 17061D   24086.91330875  .00000627  00000+0  21685-3 0  9998
2 42958  86.4032   4.7041 0002276  88.7919 271.3538 14.34222451338379
